     3.00           N                   E                   RINEX VERSION / TYPE
BRD_USR             ESA                 20190112 071730  UTCPGM / RUN BY / DATE
 GAL   4.0250E+01  4.2969E-02 -8.8501E-04  0.0000E+00       IONOSPHERIC CORR
GAUT  2.7939677238E-09-1.776356839E-15 518400 2035 GSTB   0 TIME SYSTEM CORR
GPGA  2.1827872843E-09 1.199040867E-14 518400 2035 GSTB   0 TIME SYSTEM CORR
                                                            END OF HEADER
E31 2019 01 12 05 20 00 9.348016465083E-04-9.748646334629E-12 0.000000000000E+00
     0.000000000000E+00-6.562500000000E+00 2.854047453961E-09 1.655221273559E+00
    -2.589076757431E-07 2.295302692801E-04 6.930902600288E-06 5.440620508194E+03
     5.376000000000E+05 2.980232238770E-08-2.951668241630E+00 3.725290298462E-09
     9.896888478273E-01 2.052500000000E+02-1.515333780123E+00-5.477728169365E-09
    -3.367997433469E-10 5.210000000000E+02 2.035000000000E+03 0.000000000000E+00
     3.120000000000E+00 0.000000000000E+00-2.328306436539E-10-2.328306436539E-10
     5.384950000000E+05 0.000000000000E+00 0.000000000000E+00 0.000000000000E+00
E31 2019 01 12 05 20 00 9.348015883006E-04-9.748646334629E-12 0.000000000000E+00
     0.000000000000E+00-6.562500000000E+00 2.854047453961E-09 1.655221273559E+00
    -2.589076757431E-07 2.295302692801E-04 6.930902600288E-06 5.440620508194E+03
     5.376000000000E+05 2.980232238770E-08-2.951668241630E+00 3.725290298462E-09
     9.896888478273E-01 2.052500000000E+02-1.515333780123E+00-5.477728169365E-09
    -3.367997433469E-10 2.580000000000E+02 2.035000000000E+03 0.000000000000E+00
     3.120000000000E+00 0.000000000000E+00-2.328306436539E-10 0.000000000000E+00
     5.385000000000E+05 0.000000000000E+00 0.000000000000E+00 0.000000000000E+00
E03 2019 01 12 05 20 00-1.212269417010E-04-4.220623850415E-12 0.000000000000E+00
     0.000000000000E+00-1.540625000000E+01 3.139059325849E-09-7.606491677939E-01
    -7.953494787216E-07 2.606112975627E-04 1.037307083607E-05 5.440625835419E+03
     5.376000000000E+05 2.421438694000E-08 1.241586691606E+00 1.862645149231E-09
     9.524449869853E-01 1.138125000000E+02 6.160139346530E-01-5.545230981128E-09
     1.389343586023E-10 2.580000000000E+02 2.035000000000E+03 0.000000000000E+00
     3.120000000000E+00 0.000000000000E+00-1.862645149231E-09 0.000000000000E+00
     5.386000000000E+05 0.000000000000E+00 0.000000000000E+00 0.000000000000E+00
E01 2019 01 12 05 30 00-5.189710063860E-04-8.157030606526E-12 0.000000000000E+00
     1.000000000000E+00 2.031250000000E+00 2.833332305378E-09 1.623851906556E+00
    -2.607703208923E-08 9.825907181948E-05 7.240101695061E-06 5.440615724564E+03
     5.382000000000E+05 2.793967723846E-08-2.949030733459E+00 1.303851604462E-08
     9.901499508284E-01 1.991250000000E+02-6.417012780968E-01-5.470585014681E-09
    -3.543004723225E-10 5.210000000000E+02 2.035000000000E+03 0.000000000000E+00
     3.120000000000E+00 0.000000000000E+00-4.423782229424E-09-5.122274160385E-09
     5.388850000000E+05 0.000000000000E+00 0.000000000000E+00 0.000000000000E+00
E03 2019 01 12 05 30 00-1.212295610458E-04-4.220623850415E-12 0.000000000000E+00
     1.000000000000E+00-1.590625000000E+01 3.143702376394E-09-6.864515968929E-01
    -8.139759302139E-07 2.604844048619E-04 1.040659844875E-05 5.440625562668E+03
     5.382000000000E+05 2.607703208923E-08 1.241583363468E+00 3.725290298462E-09
     9.524450820750E-01 1.128750000000E+02 6.162011603717E-01-5.543445192457E-09
     1.385772008681E-10 5.210000000000E+02 2.035000000000E+03 0.000000000000E+00
     3.120000000000E+00 0.000000000000E+00-1.862645149231E-09-2.095475792885E-09
     5.388850000000E+05 0.000000000000E+00 0.000000000000E+00 0.000000000000E+00
E05 2019 01 12 05 30 00 1.265184255317E-04-6.494360604847E-12 0.000000000000E+00
     1.000000000000E+00-3.368750000000E+01 3.149416900141E-09-9.113759128192E-01
    -1.560896635056E-06 1.307894708589E-04 1.071020960808E-05 5.440618328094E+03
     5.382000000000E+05-1.862645149231E-08 1.241566557465E+00 6.519258022308E-08
     9.524590646460E-01 1.074687500000E+02 1.628618456462E+00-5.468799226010E-09
     1.639353999960E-10 5.210000000000E+02 2.035000000000E+03 0.000000000000E+00
     3.120000000000E+00 0.000000000000E+00-1.164153218269E-09-1.396983861923E-09
     5.388850000000E+05 0.000000000000E+00 0.000000000000E+00 0.000000000000E+00
E08 2019 01 12 05 30 00 6.425089843106E-03-7.474909580196E-12 0.000000000000E+00
     1.000000000000E+00-1.306250000000E+01 3.044769684022E-09-1.317224337121E+00
    -6.947666406631E-07 2.143761375919E-04 1.102127134800E-05 5.440621362686E+03
     5.382000000000E+05 3.166496753693E-08 1.232971985432E+00-1.303851604462E-08
     9.584326711850E-01 1.050937500000E+02 4.631689530060E-01-5.475585222960E-09
     8.750364487804E-11 5.210000000000E+02 2.035000000000E+03 0.000000000000E+00
     3.120000000000E+00 0.000000000000E+00-8.614733815193E-09-9.778887033463E-09
     5.388850000000E+05 0.000000000000E+00 0.000000000000E+00 0.000000000000E+00
E11 2019 01 12 05 30 00 5.719615146518E-03 8.242295734817E-13 0.000000000000E+00
     1.000000000000E+00 2.640625000000E+01 3.074770933694E-09-2.335534991378E+00
     1.192092895508E-06 2.733016153798E-04 4.095956683159E-06 5.440598119736E+03
     5.382000000000E+05-5.587935447693E-08-8.637316538675E-01-6.891787052155E-08
     9.819186842602E-01 2.607500000000E+02-3.510301452888E-01-5.737738999860E-09
     1.985797002130E-10 5.210000000000E+02 2.035000000000E+03 0.000000000000E+00
     3.120000000000E+00 0.000000000000E+00-1.839362084866E-08-1.979060471058E-08
     5.388850000000E+05 0.000000000000E+00 0.000000000000E+00 0.000000000000E+00
E12 2019 01 12 05 30 00 5.923814431299E-03 8.432721188001E-11 0.000000000000E+00
     1.000000000000E+00 3.109375000000E+01 3.124773016482E-09-1.024380260407E+00
     1.542270183563E-06 3.975204890594E-04 4.120171070099E-06 5.440601942062E+03
     5.382000000000E+05 7.078051567078E-08-8.637474958073E-01-4.284083843231E-08
     9.819323011017E-01 2.619062500000E+02-8.585535836429E-01-5.815599385915E-09
     2.507247294057E-10 5.210000000000E+02 2.035000000000E+03 0.000000000000E+00
     3.120000000000E+00 0.000000000000E+00-1.583248376846E-08-1.629814505577E-08
     5.388850000000E+05 0.000000000000E+00 0.000000000000E+00 0.000000000000E+00
E13 2019 01 12 05 30 00 3.816297976300E-04 4.689582056017E-13 0.000000000000E+00
     1.000000000000E+00 2.400000000000E+01 3.024411693172E-09 1.972688027289E+00
     1.139938831329E-06 3.435390535742E-04 3.185123205185E-06 5.440596748352E+03
     5.382000000000E+05 2.048909664154E-08-8.690206015791E-01 1.117587089539E-08
     9.851607828267E-01 2.830625000000E+02-1.511146513592E+00-5.732024476113E-09
     1.632210845276E-10 5.210000000000E+02 2.035000000000E+03 0.000000000000E+00
    -1.000000000000E+00 4.550000000000E+02-4.423782229424E-09-5.355104804039E-09
     5.388850000000E+05 0.000000000000E+00 0.000000000000E+00 0.000000000000E+00
E15 2019 01 12 05 30 00 9.231978328899E-04-9.947598300641E-13 0.000000000000E+00
     1.000000000000E+00 2.306250000000E+01 3.053698627377E-09 2.844570368734E+00
     1.221895217896E-06 3.894750261679E-04 3.246590495110E-06 5.440596757889E+03
     5.382000000000E+05 6.146728992462E-08-8.690320020997E-01 2.607703208923E-08
     9.851182470206E-01 2.817500000000E+02-1.600758821573E+00-5.764882987659E-09
     1.553636143753E-10 5.210000000000E+02 2.035000000000E+03 0.000000000000E+00
     3.120000000000E+00 4.550000000000E+02 1.396983861923E-09 1.396983861923E-09
     5.388850000000E+05 0.000000000000E+00 0.000000000000E+00 0.000000000000E+00
E18 2019 01 12 05 30 00 5.612639361061E-03-2.850697455870E-11 0.000000000000E+00
     1.000000000000E+00-2.384375000000E+01 5.236646698783E-09 3.407284414844E-01
    -1.920387148857E-06 1.663089308422E-01 9.741634130478E-06 5.289361099243E+03
     5.382000000000E+05-3.058463335037E-06-1.448391933258E+00-4.066154360771E-06
     8.818159033776E-01 1.822500000000E+02 1.441582005711E+00-8.676432836825E-09
     9.139666418078E-10 5.210000000000E+02 2.035000000000E+03 0.000000000000E+00
     3.120000000000E+00 4.550000000000E+02 1.420266926289E-08 1.583248376846E-08
     5.388850000000E+05 0.000000000000E+00 0.000000000000E+00 0.000000000000E+00
E19 2019 01 12 05 30 00-9.185983799398E-06 2.984279490192E-13 0.000000000000E+00
     1.000000000000E+00-2.543750000000E+01 3.100486290556E-09 7.878410990755E-01
    -1.208856701851E-06 1.318086870015E-04 1.225061714649E-05 5.440620931625E+03
     5.382000000000E+05 3.725290298462E-08 1.238323911767E+00 1.490116119385E-08
     9.582176982990E-01 7.500000000000E+01 2.363223701844E+00-5.517372677861E-09
     1.150047904111E-10 5.210000000000E+02 2.035000000000E+03 0.000000000000E+00
     3.120000000000E+00 0.000000000000E+00-8.614733815193E-09-8.847564458847E-09
     5.388850000000E+05 0.000000000000E+00 0.000000000000E+00 0.000000000000E+00
E24 2019 01 12 05 30 00 6.290375662502E-03-1.969624463527E-11 0.000000000000E+00
     1.000000000000E+00-4.250000000000E+00 2.806902633047E-09-1.087736278548E+00
    -1.173466444016E-07 4.804965574294E-04 6.742775440216E-06 5.440610877991E+03
     5.382000000000E+05 1.154839992523E-07-2.945569952046E+00-4.656612873077E-08
     9.877181435681E-01 2.055937500000E+02 4.944446581418E-01-5.437369345401E-09
    -2.992981812563E-10 5.210000000000E+02 2.035000000000E+03 0.000000000000E+00
     3.120000000000E+00 0.000000000000E+00 4.284083843231E-08 4.796311259270E-08
     5.388850000000E+05 0.000000000000E+00 0.000000000000E+00 0.000000000000E+00
